[{"OBJECT_NAME":"STARLINK-1954","OBJECT_ID":"2021-009H","EPOCH":"2026-03-09T23:20:25.352160","MEAN_MOTION":15.30849174,"ECCENTRICITY":0.00046184,"INCLINATION":53.0574,"RA_OF_ASC_NODE":8.8654,"ARG_OF_PERICENTER":103.3293,"MEAN_ANOMALY":256.8222,"EPHEMERIS_TYPE":0,"CLASSIFICATION_TYPE":"U","NORAD_CAT_ID":47555,"ELEMENT_SET_NO":999,"REV_AT_EPOCH":28100,"BSTAR":0.0022371791,"MEAN_MOTION_DOT":0.00067883,"MEAN_MOTION_DDOT":0},{"OBJECT_NAME":"STARLINK-34975","OBJECT_ID":"2025-176AC","EPOCH":"2026-03-09T12:53:31.548480","MEAN_MOTION":15.30190492,"ECCENTRICITY":0.00016464,"INCLINATION":53.1588,"RA_OF_ASC_NODE":153.6775,"ARG_OF_PERICENTER":76.064,"MEAN_ANOMALY":284.0544,"EPHEMERIS_TYPE":0,"CLASSIFICATION_TYPE":"U","NORAD_CAT_ID":65224,"ELEMENT_SET_NO":999,"REV_AT_EPOCH":3309,"BSTAR":0.0005970783,"MEAN_MOTION_DOT":0.00017361,"MEAN_MOTION_DDOT":0}]
